[{"OBJECT_NAME":"OBJECT G","OBJECT_ID":"2025-155G","EPOCH":"2026-03-09T22:09:56.639808","MEAN_MOTION":15.27590702,"ECCENTRICITY":0.00081871,"INCLINATION":97.4488,"RA_OF_ASC_NODE":37.3259,"ARG_OF_PERICENTER":154.1528,"MEAN_ANOMALY":206.0122,"EPHEMERIS_TYPE":0,"CLASSIFICATION_TYPE":"U","NORAD_CAT_ID":64882,"ELEMENT_SET_NO":999,"REV_AT_EPOCH":6559,"BSTAR":0.0004792617,"MEAN_MOTION_DOT":0.00012876,"MEAN_MOTION_DDOT":0},{"OBJECT_NAME":"STARLINK-35692","OBJECT_ID":"2025-263AE","EPOCH":"2026-03-09T03:27:29.670624","MEAN_MOTION":15.27618533,"ECCENTRICITY":9.372e-5,"INCLINATION":43,"RA_OF_ASC_NODE":353.9242,"ARG_OF_PERICENTER":256.6074,"MEAN_ANOMALY":103.4673,"EPHEMERIS_TYPE":0,"CLASSIFICATION_TYPE":"U","NORAD_CAT_ID":66513,"ELEMENT_SET_NO":999,"REV_AT_EPOCH":1881,"BSTAR":0.0010285494,"MEAN_MOTION_DOT":0.00028183,"MEAN_MOTION_DDOT":0}]
